{"type": "FeatureCollection", "features": [ {"type": "Feature", "properties": {"norad_id": 34590, "name": "COSMOS 2251 DEB", "group": "cosmos-2251-debris", "lat": -9.385300058830827, "lon": -23.925096609563607, "alt_km": 738.0501239791465, "timestamp": "2025-12-04T03:47:54.936793+00:00", "meta": {"OBJECT_NAME": "COSMOS 2251 DEB", "OBJECT_ID": "1993-036WC", "EPOCH": "2025-12-03T10:00:32.173056", "MEAN_MOTION": 14.54808403, "ECCENTRICITY": 0.0068045, "INCLINATION": 74.0436, "RA_OF_ASC_NODE": 340.187, "ARG_OF_PERICENTER": 112.5164, "MEAN_ANOMALY": 318.0143, "EPHEMERIS_TYPE": 0, "CLASSIFICATION_TYPE": "U", "NORAD_CAT_ID": 34590, "ELEMENT_SET_NO": 999, "REV_AT_EPOCH": 88985, "BSTAR": 0.00017725, "MEAN_MOTION_DOT": 7.54e-06, "MEAN_MOTION_DDOT": 0}, "tle": {"line1": "1 34590U 93036WC  25337.41703904  .00000754  00000+0  17725-3 0  9990", "line2": "2 34590  74.0436 340.1870 0068045 112.5164 318.0143 14.54808403889858"}}, "geometry": {"type": "Point", "coordinates": [-23.925096609563607, -9.385300058830827]}}, {"type": "Feature", "properties": {"norad_id": 34609, "name": "COSMOS 2251 DEB", "group": "cosmos-2251-debris", "lat": 57.53861003871636, "lon": 149.73134069766047, "alt_km": 791.034258579075, "timestamp": "2025-12-04T03:47:54.936803+00:00", "meta": {"OBJECT_NAME": "COSMOS 2251 DEB", "OBJECT_ID": "1993-036WE", "EPOCH": "2025-12-03T04:42:46.226304", "MEAN_MOTION": 14.21736587, "ECCENTRICITY": 0.01446009, "INCLINATION": 73.7313, "RA_OF_ASC_NODE": 124.1627, "ARG_OF_PERICENTER": 345.1689, "MEAN_ANOMALY": 193.4068, "EPHEMERIS_TYPE": 0, "CLASSIFICATION_TYPE": "U", "NORAD_CAT_ID": 34609, "ELEMENT_SET_NO": 999, "REV_AT_EPOCH": 86496, "BSTAR": 0.00088347881, "MEAN_MOTION_DOT": 2.133e-05, "MEAN_MOTION_DDOT": 0}, "tle": {"line1": "1 34609U 93036WE  25337.19636836  .00002133  00000+0  88348-3 0  9997", "line2": "2 34609  73.7313 124.1627 0144600 345.1689 193.4068 14.21736587864960"}}, "geometry": {"type": "Point", "coordinates": [149.73134069766047, 57.53861003871636]}}, {"type": "Feature", "properties": {"norad_id": 34610, "name": "COSMOS 2251 DEB", "group": "cosmos-2251-debris", "lat": -38.75579003220686, "lon": -95.9331116206926, "alt_km": 874.415560592749, "timestamp": "2025-12-04T03:47:54.936813+00:00", "meta": {"OBJECT_NAME": "COSMOS 2251 DEB", "OBJECT_ID": "1993-036WF", "EPOCH": "2025-12-03T05:48:16.851744", "MEAN_MOTION": 14.06935876, "ECCENTRICITY": 0.018002, "INCLINATION": 74.0189, "RA_OF_ASC_NODE": 278.9726, "ARG_OF_PERICENTER": 51.6495, "MEAN_ANOMALY": 310.0665, "EPHEMERIS_TYPE": 0, "CLASSIFICATION_TYPE": "U", "NORAD_CAT_ID": 34610, "ELEMENT_SET_NO": 999, "REV_AT_EPOCH": 85426, "BSTAR": 0.0030713, "MEAN_MOTION_DOT": 5.915e-05, "MEAN_MOTION_DDOT": 0}, "tle": {"line1": "1 34610U 93036WF  25337.24186171  .00005915  00000+0  30713-2 0  9990", "line2": "2 34610  74.0189 278.9726 0180020  51.6495 310.0665 14.06935876854262"}}, "geometry": {"type": "Point", "coordinates": [-95.9331116206926, -38.75579003220686]}}, {"type": "Feature", "properties": {"norad_id": 34611, "name": "COSMOS 2251 DEB", "group": "cosmos-2251-debris", "lat": -65.91032268254769, "lon": -22.670786669503638, "alt_km": 670.3449720064891, "timestamp": "2025-12-04T03:47:54.936823+00:00", "meta": {"OBJECT_NAME": "COSMOS 2251 DEB", "OBJECT_ID": "1993-036WG", "EPOCH": "2025-12-02T16:24:15.257088", "MEAN_MOTION": 14.69161459, "ECCENTRICITY": 0.00240467, "INCLINATION": 74.0521, "RA_OF_ASC_NODE": 120.4215, "ARG_OF_PERICENTER": 165.3295, "MEAN_ANOMALY": 209.2062, "EPHEMERIS_TYPE": 0, "CLASSIFICATION_TYPE": "U", "NORAD_CAT_ID": 34611, "ELEMENT_SET_NO": 999, "REV_AT_EPOCH": 88243, "BSTAR": 0.0020751853, "MEAN_MOTION_DOT": 0.00012256, "MEAN_MOTION_DDOT": 0}, "tle": {"line1": "1 34611U 93036WG  25336.68350992  .00012256  00000+0  20752-2 0  9990", "line2": "2 34611  74.0521 120.4215 0024046 165.3295 209.2062 14.69161459882430"}}, "geometry": {"type": "Point", "coordinates": [-22.670786669503638, -65.91032268254769]}}, {"type": "Feature", "properties": {"norad_id": 34613, "name": "COSMOS 2251 DEB", "group": "cosmos-2251-debris", "lat": -43.82070461393516, "lon": 130.1588327352091, "alt_km": 820.0614138725077, "timestamp": "2025-12-04T03:47:54.936833+00:00", "meta": {"OBJECT_NAME": "COSMOS 2251 DEB", "OBJECT_ID": "1993-036WJ", "EPOCH": "2025-12-02T14:16:40.154016", "MEAN_MOTION": 14.26335648, "ECCENTRICITY": 0.01101588, "INCLINATION": 73.9632, "RA_OF_ASC_NODE": 296.9732, "ARG_OF_PERICENTER": 131.4585, "MEAN_ANOMALY": 348.8647, "EPHEMERIS_TYPE": 0, "CLASSIFICATION_TYPE": "U", "NORAD_CAT_ID": 34613, "ELEMENT_SET_NO": 999, "REV_AT_EPOCH": 86318, "BSTAR": 0.0014991683, "MEAN_MOTION_DOT": 3.815e-05, "MEAN_MOTION_DDOT": 0}, "tle": {"line1": "1 34613U 93036WJ  25336.59490919  .00003815  00000+0  14992-2 0  9996", "line2": "2 34613  73.9632 296.9732 0110158 131.4585 348.8647 14.26335648863188"}}, "geometry": {"type": "Point", "coordinates": [130.1588327352091, -43.82070461393516]}}, {"type": "Feature", "properties": {"norad_id": 34614, "name": "COSMOS 2251 DEB", "group": "cosmos-2251-debris", "lat": 57.35780204373543, "lon": 26.162819544963874, "alt_km": 770.4993040686477, "timestamp": "2025-12-04T03:47:54.936843+00:00", "meta": {"OBJECT_NAME": "COSMOS 2251 DEB", "OBJECT_ID": "1993-036WK", "EPOCH": "2025-12-02T21:17:05.186112", "MEAN_MOTION": 14.17081301, "ECCENTRICITY": 0.01965888, "INCLINATION": 73.8803, "RA_OF_ASC_NODE": 1.6106, "ARG_OF_PERICENTER": 357.259, "MEAN_ANOMALY": 58.3338, "EPHEMERIS_TYPE": 0, "CLASSIFICATION_TYPE": "U", "NORAD_CAT_ID": 34614, "ELEMENT_SET_NO": 999, "REV_AT_EPOCH": 84627, "BSTAR": 0.0059272273, "MEAN_MOTION_DOT": 0.00014422, "MEAN_MOTION_DDOT": 0}, "tle": {"line1": "1 34614U 93036WK  25336.88686558  .00014422  00000+0  59272-2 0  9991", "line2": "2 34614  73.8803   1.6106 0196588 357.2590  58.3338 14.17081301846274"}}, "geometry": {"type": "Point", "coordinates": [26.162819544963874, 57.35780204373543]}}, {"type": "Feature", "properties": {"norad_id": 34615, "name": "COSMOS 2251 DEB", "group": "cosmos-2251-debris", "lat": 20.342005510030507, "lon": 121.80330042578699, "alt_km": 897.4871034979687, "timestamp": "2025-12-04T03:47:54.936853+00:00", "meta": {"OBJECT_NAME": "COSMOS 2251 DEB", "OBJECT_ID": "1993-036WL", "EPOCH": "2025-12-01T17:17:48.208704", "MEAN_MOTION": 13.52196517, "ECCENTRICITY": 0.04023715, "INCLINATION": 74.0055, "RA_OF_ASC_NODE": 311.8151, "ARG_OF_PERICENTER": 221.3257, "MEAN_ANOMALY": 319.7339, "EPHEMERIS_TYPE": 0, "CLASSIFICATION_TYPE": "U", "NORAD_CAT_ID": 34615, "ELEMENT_SET_NO": 999, "REV_AT_EPOCH": 82666, "BSTAR": 4.7217708e-05, "MEAN_MOTION_DOT": 2.9e-07, "MEAN_MOTION_DDOT": 0}, "tle": {"line1": "1 34615U 93036WL  25335.72069686  .00000029  00000+0  47218-4 0  9998", "line2": "2 34615  74.0055 311.8151 0402371 221.3257 319.7339 13.52196517826664"}}, "geometry": {"type": "Point", "coordinates": [121.80330042578699, 20.342005510030507]}}, {"type": "Feature", "properties": {"norad_id": 34619, "name": "COSMOS 2251 DEB", "group": "cosmos-2251-debris", "lat": -18.95271362943741, "lon": 42.06776487330391, "alt_km": 709.2904716136254, "timestamp": "2025-12-04T03:47:54.936863+00:00", "meta": {"OBJECT_NAME": "COSMOS 2251 DEB", "OBJECT_ID": "1993-036WQ", "EPOCH": "2025-12-03T02:17:30.920064", "MEAN_MOTION": 14.64603325, "ECCENTRICITY": 0.00945548, "INCLINATION": 74.0445, "RA_OF_ASC_NODE": 218.4709, "ARG_OF_PERICENTER": 315.5653, "MEAN_ANOMALY": 43.7955, "EPHEMERIS_TYPE": 0, "CLASSIFICATION_TYPE": "U", "NORAD_CAT_ID": 34619, "ELEMENT_SET_NO": 999, "REV_AT_EPOCH": 89157, "BSTAR": 0.00031453449, "MEAN_MOTION_DOT": 1.749e-05, "MEAN_MOTION_DDOT": 0}, "tle": {"line1": "1 34619U 93036WQ  25337.09549676  .00001749  00000+0  31453-3 0  9999", "line2": "2 34619  74.0445 218.4709 0094554 315.5653  43.7955 14.64603325891572"}}, "geometry": {"type": "Point", "coordinates": [42.06776487330391, -18.95271362943741]}}, {"type": "Feature", "properties": {"norad_id": 34620, "name": "COSMOS 2251 DEB", "group": "cosmos-2251-debris", "lat": -19.576050159654866, "lon": 61.443042760028504, "alt_km": 717.4096486405233, "timestamp": "2025-12-04T03:47:54.936873+00:00", "meta": {"OBJECT_NAME": "COSMOS 2251 DEB", "OBJECT_ID": "1993-036WR", "EPOCH": "2025-12-03T03:40:05.521152", "MEAN_MOTION": 14.48819497, "ECCENTRICITY": 0.0081909, "INCLINATION": 74.0521, "RA_OF_ASC_NODE": 237.4888, "ARG_OF_PERICENTER": 276.0951, "MEAN_ANOMALY": 83.0881, "EPHEMERIS_TYPE": 0, "CLASSIFICATION_TYPE": "U", "NORAD_CAT_ID": 34620, "ELEMENT_SET_NO": 999, "REV_AT_EPOCH": 86688, "BSTAR": 0.003290247, "MEAN_MOTION_DOT": 0.00012967, "MEAN_MOTION_DDOT": 0}, "tle": {"line1": "1 34620U 93036WR  25337.15284168  .00012967  00000+0  32902-2 0  9993", "line2": "2 34620  74.0521 237.4888 0081909 276.0951  83.0881 14.48819497866882"}}, "geometry": {"type": "Point", "coordinates": [61.443042760028504, -19.576050159654866]}}, {"type": "Feature", "properties": {"norad_id": 34622, "name": "COSMOS 2251 DEB", "group": "cosmos-2251-debris", "lat": -47.60616350021661, "lon": -55.85665743907287, "alt_km": 833.6439003245841, "timestamp": "2025-12-04T03:47:54.936883+00:00", "meta": {"OBJECT_NAME": "COSMOS 2251 DEB", "OBJECT_ID": "1993-036WT", "EPOCH": "2025-12-03T06:09:34.973856", "MEAN_MOTION": 14.21976964, "ECCENTRICITY": 0.0103992, "INCLINATION": 74.0416, "RA_OF_ASC_NODE": 324.0265, "ARG_OF_PERICENTER": 48.8586, "MEAN_ANOMALY": 328.5405, "EPHEMERIS_TYPE": 0, "CLASSIFICATION_TYPE": "U", "NORAD_CAT_ID": 34622, "ELEMENT_SET_NO": 999, "REV_AT_EPOCH": 86325, "BSTAR": 0.0012722, "MEAN_MOTION_DOT": 2.945e-05, "MEAN_MOTION_DDOT": 0}, "tle": {"line1": "1 34622U 93036WT  25337.25665479  .00002945  00000+0  12722-2 0  9997", "line2": "2 34622  74.0416 324.0265 0103992  48.8586 328.5405 14.21976964863256"}}, "geometry": {"type": "Point", "coordinates": [-55.85665743907287, -47.60616350021661]}}]}